[{"OBJECT_NAME":"STARLINK-4448","OBJECT_ID":"2022-099AR","EPOCH":"2026-03-09T20:58:28.334784","MEAN_MOTION":15.01260365,"ECCENTRICITY":0.00020442,"INCLINATION":97.6025,"RA_OF_ASC_NODE":190.4028,"ARG_OF_PERICENTER":87.4619,"MEAN_ANOMALY":272.6839,"EPHEMERIS_TYPE":0,"CLASSIFICATION_TYPE":"U","NORAD_CAT_ID":53504,"ELEMENT_SET_NO":999,"REV_AT_EPOCH":19601,"BSTAR":4.5143087e-5,"MEAN_MOTION_DOT":5.22e-6,"MEAN_MOTION_DDOT":0},{"OBJECT_NAME":"PEGASUS DEB","OBJECT_ID":"1994-029FZ","EPOCH":"2026-03-09T12:36:59.566752","MEAN_MOTION":14.41175502,"ECCENTRICITY":0.02757153,"INCLINATION":81.7972,"RA_OF_ASC_NODE":78.8441,"ARG_OF_PERICENTER":112.9537,"MEAN_ANOMALY":15.5013,"EPHEMERIS_TYPE":0,"CLASSIFICATION_TYPE":"U","NORAD_CAT_ID":24126,"ELEMENT_SET_NO":999,"REV_AT_EPOCH":53960,"BSTAR":0.0010536774,"MEAN_MOTION_DOT":5.383e-5,"MEAN_MOTION_DDOT":0}]
